IONOSFERA-M 2           
1 61736U 24199B   26205.28967999  .00000034  00000+0  34643-4 0  9992
2 61736  98.7122  77.9719 0000879 131.0900 229.0354 14.22763736136109
PRSC-EO1                
1 62725U 25012A   26205.31177241  .00009484  00000+0  47300-3 0  9994
2 62725  97.4210 277.0418 0007317 121.1580 239.0372 15.17716593 83824
BIOMASS                 
1 63772U 25090A   26204.37736323  .00000617  00000+0  11721-3 0  9997
2 63772  98.0751  31.1662 0001467  87.7384 272.3989 14.67538192 65996
GOSAT-GW (IBUKI GW)     
1 64694U 25141A   26205.28086175  .00000051  00000+0  17502-4 0  9998
2 64694  98.0569 141.9952 0001443  84.8321 275.3048 14.67554402 57286
IONOSFERA-M 3           
1 64876U 25155A   26205.27022236  .00000050  00000+0  42595-4 0  9991
2 64876  98.6055 166.2463 0002477  98.7661 261.3797 14.21492091 51678
IONOSFERA-M 4           
1 64877U 25155B   26205.30499973  .00000062  00000+0  47727-4 0  9997
2 64877  98.6054 166.1973 0001914  90.1523 269.9874 14.21494609 51678
MICROCARB               
1 64899U 25156A   26205.17820106  .00000573  00000+0  97004-4 0  9993
2 64899  98.0068 281.7538 0018270 142.9879 217.2593 14.72893340 53414
CO3D 3                  
1 64900U 25156B   26205.24585741  .00005041  00000+0  23584-3 0  9993
2 64900  97.4335 283.4060 0001686  85.5766 274.5662 15.20200976 55164
CO3D 4                  
1 64901U 25156C   26205.24601278  .00004907  00000+0  22975-3 0  9991
2 64901  97.4336 283.4061 0002193 137.0397 223.1009 15.20187543 55163
CO3D 2                  
1 64902U 25156D   26205.27848835  .00004857  00000+0  22736-3 0  9996
2 64902  97.4335 283.3370 0001124  88.8203 271.3161 15.20200462 55167
CO3D 1                  
1 64903U 25156E   26205.27864163  .00004985  00000+0  23318-3 0  9998
2 64903  97.4334 283.3371 0001352 100.0570 260.0818 15.20211932 55163
PRSC-S1                 
1 65055U 25164A   26205.05581089  .00005744  00000+0  39129-3 0  9996
2 65055  41.1308  80.1263 0007813 250.3335 109.6637 15.06697658 53991
SENTINEL-6B             
1 66514U 25264A   26204.93767044 -.00000056  00000+0  22264-4 0  9996
2 66514  66.0410  58.8476 0007819 268.3085  91.7035 12.80930287 31870
CAS500-3                
1 66655U 25274F   26205.25858316  .00001270  00000+0  14280-3 0  9998
2 66655  97.7433 132.4664 0005534  12.2659 347.8691 14.88401480 35667
CSG-3                   
1 67304U 26001A   26205.26229624  .00000322  00000+0  47031-4 0  9992
2 67304  97.8899  28.3295 0001491  92.7992 267.3392 14.82168422 29959
PRSC-E03                
1 68835U 26092A   26205.30016369  .00002101  00000+0  14544-3 0  9996
2 68835  38.0000 230.8035 0004802 307.7501  52.2825 15.06838729 13558
CAS500-2                
1 69013U 26100AK  26205.26698501  .00007280  00000+0  33888-3 0  9999
2 69013  97.3845 102.4008 0007621 226.6413 133.4188 15.20199829 12447
