OBJECT_NAME,OBJECT_ID,EPOCH,MEAN_MOTION,ECCENTRICITY,INCLINATION,RA_OF_ASC_NODE,ARG_OF_PERICENTER,MEAN_ANOMALY,EPHEMERIS_TYPE,CLASSIFICATION_TYPE,NORAD_CAT_ID,ELEMENT_SET_NO,REV_AT_EPOCH,BSTAR,MEAN_MOTION_DOT,MEAN_MOTION_DDOT
IONOSFERA-M 2,2024-199B,2026-07-24T06:57:08.351136,14.22763736,.00008792,98.7122,77.9719,131.0900,229.0354,0,U,61736,999,13610,.34642524E-4,.34E-6,0
PRSC-EO1,2025-012A,2026-07-24T07:28:57.136224,15.17716593,.00073173,97.4210,277.0418,121.1580,239.0372,0,U,62725,999,8382,.47300308E-3,.9484E-4,0
BIOMASS,2025-090A,2026-07-23T09:03:24.183072,14.67538192,.0001467,98.0751,31.1662,87.7384,272.3989,0,U,63772,999,6599,.11721E-3,.617E-5,0
GOSAT-GW (IBUKI GW),2025-141A,2026-07-24T06:44:26.455200,14.67554402,.0001443,98.0569,141.9952,84.8321,275.3048,0,U,64694,999,5728,.17501954E-4,.51E-6,0
IONOSFERA-M 3,2025-155A,2026-07-24T06:29:07.211904,14.21492091,.00024778,98.6055,166.2463,98.7661,261.3797,0,U,64876,999,5167,.42595065E-4,.5E-6,0
IONOSFERA-M 4,2025-155B,2026-07-24T07:19:11.976672,14.21494609,.00019148,98.6054,166.1973,90.1523,269.9874,0,U,64877,999,5167,.47727234E-4,.62E-6,0
MICROCARB,2025-156A,2026-07-24T04:16:36.571584,14.72893340,.00182707,98.0068,281.7538,142.9879,217.2593,0,U,64899,999,5341,.97004216E-4,.573E-5,0
CO3D 3,2025-156B,2026-07-24T05:54:02.080224,15.20200976,.00016867,97.4335,283.4060,85.5766,274.5662,0,U,64900,999,5516,.23584126E-3,.5041E-4,0
CO3D 4,2025-156C,2026-07-24T05:54:15.504192,15.20187543,.00021935,97.4336,283.4061,137.0397,223.1009,0,U,64901,999,5516,.22975353E-3,.4907E-4,0
CO3D 2,2025-156D,2026-07-24T06:41:01.393440,15.20200462,.00011244,97.4335,283.3370,88.8203,271.3161,0,U,64902,999,5516,.22735621E-3,.4857E-4,0
CO3D 1,2025-156E,2026-07-24T06:41:14.636832,15.20211932,.00013527,97.4334,283.3371,100.0570,260.0818,0,U,64903,999,5516,.23317958E-3,.4985E-4,0
PRSC-S1,2025-164A,2026-07-24T01:20:22.060896,15.06697658,.00078133,41.1308,80.1263,250.3335,109.6637,0,U,65055,999,5399,.39129289E-3,.5744E-4,0
SENTINEL-6B,2025-264A,2026-07-23T22:30:14.726016,12.80930287,.00078195,66.0410,58.8476,268.3085,91.7035,0,U,66514,999,3187,.22264328E-4,-.56E-6,0
CAS500-3,2025-274F,2026-07-24T06:12:21.585024,14.88401480,.00055345,97.7433,132.4664,12.2659,347.8691,0,U,66655,999,3566,.14280092E-3,.127E-4,0
CSG-3,2026-001A,2026-07-24T06:17:42.395136,14.82168422,.00014915,97.8899,28.3295,92.7992,267.3392,0,U,67304,999,2995,.47030799E-4,.322E-5,0
PRSC-E03,2026-092A,2026-07-24T07:12:14.142816,15.06838729,.00048025,38.0000,230.8035,307.7501,52.2825,0,U,68835,999,1355,.14544068E-3,.2101E-4,0
CAS500-2,2026-100AK,2026-07-24T06:24:27.504864,15.20199829,.00076217,97.3845,102.4008,226.6413,133.4188,0,U,69013,999,1244,.33887851E-3,.728E-4,0
